#dP2022  4  6 18  0  0.00000000      96 __u+U ITR00 EXT  IAC
## 2204 324000.00000000   900.00000000 59675 0.7500000000000
+  117   C06C07C08C09C10C11C12C13C14C16C19C20C21C22C23C24C25
+        C26C27C28C29C30C32C33C34C35C36C37C38C39C40C41C42C43
+        C44C45C46E01E02E03E04E05E07E08E09E10E11E12E13E14E15
+        E18E19E21E24E25E26E27E30E31E33E34E36G01G02G03G04G05
+        G06G07G08G09G10G11G12G13G14G15G16G17G18G19G20G21G22
+        G23G24G25G26G27G28G29G30G31G32J02J03R01R02R03R04R05
+        R07R08R09R11R12R13R14R15R17R18R19R20R21R22R24  0  0
++        10  9  9 10 10 10  9  7  9 11  8  8  8  9  9  7  8
++         8  8  8  8  8  8 10 10  8  9  7  8 11  9  7 10  8
++         8  9  8 10  8  8  7  6  7  8  7  7  8  9  7  8  8
++         8  8  7  8  8  8 10  7  8  7  7  8 11  8  7  8  8
++         7  8  8  9  8  9  7  8  7  9  7  7  7  7  7  8  8
++         7  7  7  6  7  8  7  8  7  7 10  8  9  9  8  9  7
++         8  9  9  9  8  8  8  7  9  8 10  9  8  8  8  0  0
%c M  cc GPS ccc cccc cccc cccc cccc ccccc ccccc ccccc ccccc
%c cc cc ccc ccc cccc cccc cccc cccc ccccc ccccc ccccc ccccc
%f  0.0000000  0.000000000  0.00000000000  0.000000000000000
%f  0.0000000  0.000000000  0.00000000000  0.000000000000000
%i    0    0    0    0      0      0      0      0         0
%i    0    0    0    0      0      0      0      0         0
/* IAC                                ULTRA-RAPID PREDICTION
/* S/V CLOCKS ARE ALIGNED TO GNSS TIME                      
/* G:C1WC2W R:C1PC2P E:C1XC5X C:C2IC6I J:C1CC2S             
/* PCV:IGS14_2196 OL/AL:FES2004  NONE     YN ORB:CoN CLK:CoN
*  2022 04 07 11 30  0.00000000
PC06 -16455.726149  25091.715961 -29692.481400   -249.426446
PC07 -11870.681064  40213.852797  -3614.529334     37.210102
PC08    110.412144  27148.621279  32317.967057    244.588375
PC09  -4854.493941  24857.509513 -33415.109353   -674.573903
PC10  -5508.114430  41383.881809   3870.881734    136.954975
PC11 -20528.035705  13419.187612  13353.371563    277.000599
PC12 -27386.995363   3689.502792  -3827.591984   -630.340956
PC13      0.000000      0.000000      0.000000    -67.519352
PC14 -13606.805532  22126.767816  10145.805908    455.630562
PC16 -18799.494056  24401.614480 -28732.233282    115.474132
PC19   8232.908383 -26660.987527   -885.621466    880.233200
PC20  16202.276539 -15771.740451 -16355.859603   -869.817434
PC21 -14911.055199  -5413.529079  22982.200797    -69.683191
PC22  -4764.185170 -22589.225740  15706.335125   -965.679226
PC23  14311.555945  22766.950184  -7461.681457   -934.947207
PC24 -17872.925280   3309.490079 -21181.341207   -951.459816
PC25  -1184.228714  19241.928656 -20192.629385   -754.527434
PC26 -22811.353857 -12136.619258 -10508.460060    755.191137
PC27  25044.849716   2690.238237  11968.943808    704.084333
PC28  10153.557265  13439.428603  22249.647195     52.504533
PC29  10641.060293 -16913.247874 -19485.417248    538.116583
PC30  25504.883273 -10292.229678  -4649.730428    496.539669
PC32  14942.524738   5303.498300 -22941.919554   -964.158936
PC33  -8162.034950  26655.583766   1022.360082   -969.763731
PC34 -25141.796813  10792.133488   5556.927327   -430.971557
PC35  -9714.002272 -13533.605410 -22403.180903    217.752163
PC36   2139.703081 -18912.253743  20426.193331   -964.764218
PC37  22457.261679  13595.407697   9506.410490   -927.505826
PC38  -7635.443865  24167.440102  33754.293876    223.458138
PC39 -24173.947794  24514.776157 -24429.256304     34.942279
PC40 -17434.426813  37728.477538  -6579.122173    258.837083
PC41   4519.858488  22858.866676 -15297.131773   -968.883711
PC42 -16453.827228  14742.243928  17085.948423   -947.454325
PC43 -11435.743508  16900.220180  19037.540257   -931.399075
PC44 -25082.189908  -2028.665018 -12116.454052    620.001720
PC45 -14533.347723 -22678.831292   7249.268615    725.046401
PC46  16933.830288  -4582.675875  21708.239589   -259.049558
PE01 -12987.489492 -24850.047085  -9476.980321   -611.744369
PE02  13058.311346  24775.700403   9604.232947    291.271766
PE03  10019.627193  13990.923361 -24079.574723   -545.490074
PE04 -22593.115820   3655.558220  18782.017896  -1001.336856
PE05  -8712.687128  23775.708817 -15320.286886   -193.109197
PE07  22084.190861 -19593.679579  -2196.396928   -656.190654
PE08  22620.981290  -4155.274854 -18633.436402   -508.253737
PE09 -21934.089657  19759.867952   2050.213469   -475.977137
PE10 -26747.089374   1325.992704  12608.975222   -505.211703
PE11 -20031.688268   8184.447191  20199.609304   4024.942259
PE12 -28897.246793  -5496.547151   3428.603749   4674.883105
PE13  20531.123011  -7770.110298 -19845.846193    427.851777
PE14  -2774.347074  17353.852272  15495.907122  -1805.572930
PE15  28887.002479   5526.446005  -3276.890474    753.120187
PE18   2471.897236 -23602.077867 -22231.452740  -1592.955395
PE19  -7709.877236 -15749.525479  23857.455599  -2611.990158
PE21  -1583.801843 -28396.406008   8188.232393   -727.054911
PE24 -12239.246344  14657.177657 -22642.268636   -547.808975
PE25   1395.298217  28342.459158  -8436.987614   -569.547175
PE26   -858.819578 -16768.393982 -24374.045887  -1002.352495
PE27  11486.166483 -15866.492623  22186.077884   -270.772229
PE30  17733.788197   7112.558259  22598.019610   -411.288525
PE31 -17675.744664  -5873.082028 -23002.096440   -494.703159
PE33 -20184.995368 -15495.840236 -15129.570005   -457.847243
PE34  20366.504142  15397.951397  14969.626292   -510.817255
PE36   -203.476370  16402.296808  24640.450480   -356.266800
PG01 -21535.476122 -14346.705379  -7054.009832    390.599273
PG02   2483.129399  16377.235662  21391.416975   -652.969795
PG03 -12667.596845 -17813.014472  15063.933917   -196.768047
PG04 -14348.069160  -7769.509773  20981.292799   -177.853242
PG05   5438.269141  25884.237893  -1374.691118    -77.442009
PG06 -14026.394252   8984.758962  20774.274755    258.151973
PG07 -25127.975043  -4609.797739  -7749.477045    319.385149
PG08  -5421.262520 -14705.362422 -21432.032920    -62.946380
PG09 -21263.968355   2764.281677  15626.053310   -345.248337
PG10  12195.666658 -12024.307964 -20072.559076   -371.326266
PG11   1712.041217  16718.926446  20567.038601    -44.847228
PG12   9692.526899  21370.947233  12289.550706   -196.684010
PG13  -4472.536250  17805.878791 -19282.891822    289.974600
PG14 -13427.746216  10807.155352 -20191.961462   -100.664986
PG15   8158.098207  14231.312568 -21263.957897    -70.810100
PG16    568.127189 -26170.792437   2342.476503   -489.161771
PG17 -22341.637383  14365.476678   -773.281400    597.248584
PG18  24851.375295   4756.382083  -8255.002808    201.425336
PG19 -19857.515371  16474.589484   5588.876762    141.212493
PG20    673.705952  25153.920479   8862.462725    515.935805
PG21 -14750.331084 -15911.676347 -15096.162729    160.213239
PG22  17101.624299 -18336.423874   8884.377803    239.569204
PG23  15221.224660    226.322701 -21780.857652    -13.098922
PG24  19475.742608  14906.329175 -10993.717995    259.657781
PG25  15234.836020   8605.628532  19773.099808    308.769030
PG26   6236.941117 -21640.381805  13748.192107    196.805503
PG27   6651.307563 -19481.224134 -16762.055701    176.948606
PG28  -9643.805494  19367.916622 -15043.349585    373.342534
PG29  20656.257405   -153.052702  16680.280348   -500.345264
PG30 -21647.147983   2774.726230 -15232.258021   -522.633625
PG31  12292.302186 -10719.639130  20916.716554   -172.369123
PG32  20436.777556 -16777.348706   1007.260938   -100.398824
PJ02 -19574.967757  25972.178031 -22345.790111     -2.540553
PJ03 -30536.887603  25300.952465  19399.410429     -1.406356
PR01  14747.630656 -12164.492886 -16889.281786      7.625158
PR02  10973.412193 -22949.566921   1437.955870    514.821484
PR03    396.056494 -18911.281571  17134.714238     54.488150
PR04  -9926.361413  -4355.247885  23123.399660    135.543769
PR05 -15019.743245  12548.502960  16387.947780     90.732075
PR07    -45.089995  18544.457213 -17493.700104     33.568696
PR08  10064.184753   4258.934717 -22986.065458    -64.467689
PR09   -198.862093  16580.594720 -19342.285877     48.493581
PR11  16944.110653  15345.683092  11311.414815     41.743536
PR12  12160.889342  -1078.495513  22419.958245     17.804729
PR13    936.030649 -15688.515260  20070.943533    -20.516184
PR14 -11757.098869 -22040.243260   5210.208607     76.264603
PR15 -16823.571513 -14974.433948 -11961.059161     97.000776
PR17  -7635.778905  -9724.200526 -22299.596558    515.594132
PR18 -22088.762489  -4382.524968 -12026.051928    112.790960
PR19 -25194.857365   2021.569429   3450.918728   -184.470184
PR20 -12633.417157   9170.777011  20195.403429    -68.152172
PR21   9185.299301   9396.342808  21864.786278   -291.438132
PR22  22433.179006   4143.962291  11287.338510   -175.402370
PR24  11674.452285 -10007.349138 -20339.571144     87.936371
EOF
